ONEWEB-0271             
1 48989U 21060Y   25093.14845241  .00000183  00000+0  44488-3 0  9997
2 48989  87.9055 316.4880 0001819  75.6392 284.4941 13.16593996183056
ONEWEB-0272             
1 48990U 21060Z   25092.86662293 -.00000041  00000+0 -13967-3 0  9994
2 48990  87.9059 316.5761 0001831  77.1623 282.9713 13.16594380182977
ONEWEB-0273             
1 48991U 21060AA  25092.66080954 -.00000064  00000+0 -20075-3 0  9994
2 48991  87.9058 316.6024 0001601  76.1393 283.9916 13.16594098181621
ONEWEB-0274             
1 48992U 21060AB  25092.91411208 -.00000480  00000+0 -12882-2 0  9991
2 48992  87.9059 316.5849 0002257  81.5230 278.6157 13.16597924182995
ONEWEB-0275             
1 48993U 21060AC  25092.90304537  .00000119  00000+0  27886-3 0  9995
2 48993  87.9056 316.5482 0001785  79.6031 280.5301 13.16593474182919
ONEWEB-0276             
1 48994U 21060AD  25093.16430069  .00000344  00000+0  86586-3 0  9997
2 48994  87.9057 316.4926 0001593  73.7320 286.3986 13.16593755182977
ONEWEB-0277             
1 48995U 21060AE  25093.17694864  .00000017  00000+0  10819-4 0  9998
2 48995  87.9058 316.5273 0001939  70.7884 289.3457 13.16594910182959
ONEWEB-0278             
1 48996U 21060AF  25093.16744900  .00000006  00000+0 -18339-4 0  9999
2 48996  87.9058 316.4888 0001450  85.3795 274.7502 13.16595073183100
ONEWEB-0279             
1 48997U 21060AG  25093.17534728  .00001114  00000+0  28803-2 0  9991
2 48997  87.9057 316.4834 0001239  70.4361 289.6904 13.16607510183022
ONEWEB-0280             
1 48998U 21060AH  25092.65841361 -.00000181  00000+0 -50685-3 0  9997
2 48998  87.9059 316.5922 0001475  71.5363 288.5928 13.16595630181593
ONEWEB-0281             
1 48999U 21060AJ  25092.66396993 -.00000016  00000+0 -76061-4 0  9999
2 48999  87.9057 316.5897 0001835  85.4880 274.6461 13.16593212181661
ONEWEB-0282             
1 49000U 21060AK  25092.84603056 -.00003790  00000+0 -99519-2 0  9997
2 49000  87.9056 316.5691 0001720  81.4276 278.7049 13.16589831182989
ONEWEB-0283             
1 49001U 21060AL  25092.91096739  .00000122  00000+0  28493-3 0  9998
2 49001  87.9057 316.5607 0001820  76.7107 283.4227 13.16595043183006
ONEWEB-0284             
1 49002U 21060AM  25092.90462689  .00000139  00000+0  33117-3 0  9996
2 49002  87.9050 316.5285 0001360  83.7816 276.3470 13.16593973182972
ONEWEB-0285             
1 49075U 21075A   25092.86692812  .00000436  00000+0  11761-2 0  9990
2 49075  87.8817  78.2799 0001835  86.4458 273.6880 13.12442546178439
ONEWEB-0286             
1 49076U 21075B   25092.45718705 -.00000202  00000+0 -59826-3 0  9994
2 49076  87.8839  78.3597 0001914  94.5570 265.5777 13.12444212176754
ONEWEB-0287             
1 49077U 21075C   25093.49622522  .00000067  00000+0  14050-3 0  9998
2 49077  87.9002  93.4346 0001920 103.0276 257.1070 13.17646332176692
ONEWEB-0288             
1 49078U 21075D   25093.43449588 -.00000191  00000+0 -56649-3 0  9992
2 49078  87.8815  78.1626 0001743  89.0723 271.0605 13.12441273178499
ONEWEB-0289             
1 49079U 21075E   25092.68961202  .00000037  00000+0  63204-4 0  9994
2 49079  87.9004  93.6269 0001431  82.6693 277.4601 13.17647085176190
ONEWEB-0290             
1 49080U 21075F   25092.74866695 -.00000353  00000+0 -94142-3 0  9990
2 49080  87.9002  93.5719 0001496  69.9648 290.1644 13.17648884175611
ONEWEB-0291             
1 49081U 21075G   25093.49286324  .00000075  00000+0  15884-3 0  9994
2 49081  87.8996  93.4299 0001718  94.4362 265.6966 13.17650866176694
ONEWEB-0293             
1 49082U 21075H   25093.06255539  .00000028  00000+0  38145-4 0  9996
2 49082  87.9003  93.5445 0001798  86.5190 273.6147 13.17651119176656
ONEWEB-0294             
1 49083U 21075J   25093.51721457 -.00000336  00000+0 -96927-3 0  9999
2 49083  87.8817  78.1452 0001348  82.7005 277.4277 13.12443421177893
ONEWEB-0295             
1 49084U 21075K   25093.06171850  .00000059  00000+0  11897-3 0  9999
2 49084  87.9015  93.5277 0001734 100.5851 259.5476 13.17648769176593
ONEWEB-0296             
1 49085U 21075L   25092.65914793  .00000000  00000+0 -36759-4 0  9997
2 49085  87.8815  78.3237 0001371 101.0270 259.1013 13.12441941176799
ONEWEB-0297             
1 49086U 21075M   25092.68997032 -.00000132  00000+0 -40167-3 0  9992
2 49086  87.8823  78.3462 0001921  89.0257 271.1092 13.12444102177402
ONEWEB-0298             
1 49087U 21075N   25092.53450056  .00000021  00000+0  20211-4 0  9991
2 49087  87.9003  93.6475 0002005  94.7088 265.4273 13.17651978175598
ONEWEB-0299             
1 49088U 21075P   25092.53605483  .00000059  00000+0  11901-3 0  9994
2 49088  87.8998  93.6039 0002006  95.6461 264.4900 13.17647145175578
ONEWEB-0300             
1 49089U 21075Q   25092.68185935 -.00000316  00000+0 -91506-3 0  9993
2 49089  87.8813  78.3106 0002270  85.2037 274.9350 13.12442901177426
ONEWEB-0301             
1 49090U 21075R   25093.50423782 -.00000131  00000+0 -40079-3 0  9996
2 49090  87.8816  78.1517 0002211  83.9882 276.1498 13.12439285177881
ONEWEB-0302             
1 49091U 21075S   25092.65266508  .00000282  00000+0  74918-3 0  9997
2 49091  87.8814  78.3225 0001462  85.7707 274.3588 13.12441972176763
ONEWEB-0304             
1 49092U 21075T   25093.49790761  .00000125  00000+0  28931-3 0  9994
2 49092  87.9002  93.4387 0001872  94.1318 266.0028 13.17651683176650
ONEWEB-0305             
1 49093U 21075U   25093.49116097  .00000117  00000+0  26756-3 0  9993
2 49093  87.8997  93.4195 0001985 103.4998 256.6354 13.17651229176678
ONEWEB-0308             
1 49094U 21075V   25093.25606727  .00000482  00000+0  13052-2 0  9991
2 49094  87.8815  78.1977 0001960  85.2404 274.8948 13.12443953177870
ONEWEB-0309             
1 49095U 21075W   25093.49454933  .00000117  00000+0  26772-3 0  9997
2 49095  87.9002  93.4328 0001432  85.6270 274.5025 13.17651037176667
ONEWEB-0310             
1 49096U 21075X   25092.88948878 -.00000065  00000+0 -21697-3 0  9991
2 49096  87.8825  78.3056 0001762  84.1208 276.0121 13.12442179178432
ONEWEB-0311             
1 49097U 21075Y   25092.74193534  .00000004  00000+0 -22411-4 0  9996
2 49097  87.9002  93.5847 0002015 102.3004 257.8353 13.17651032175624
ONEWEB-0312             
1 49098U 21075Z   25092.52931802  .00000076  00000+0  16362-3 0  9996
2 49098  87.9003  93.6581 0001632  99.7767 260.3548 13.17650694175573
ONEWEB-0313             
1 49099U 21075AA  25092.53423264  .00000063  00000+0  12776-3 0  9997
2 49099  87.9004  93.6729 0002051  92.7007 267.4360 13.17646245175561
ONEWEB-0314             
1 49100U 21075AB  25093.48778845  .00000063  00000+0  12914-3 0  9997
2 49100  87.8999  93.4164 0001735 101.7869 258.3457 13.17651103176658
ONEWEB-0315             
1 49101U 21075AC  25092.86353411  .00000396  00000+0  10659-2 0  9999
2 49101  87.8813  78.2670 0002140  96.2788 263.8585 13.12441685178412
ONEWEB-0316             
1 49102U 21075AD  25092.62056155  .00000085  00000+0  18350-3 0  9991
2 49102  87.9096  63.0448 0001964  90.0696 270.0661 13.18688407179142
ONEWEB-0317             
1 49103U 21075AE  25092.85702082  .00002746  00000+0  75936-2 0  9992
2 49103  87.8815  78.2825 0001855  74.1576 285.9757 13.12464470178424
ONEWEB-0318             
1 49104U 21075AF  25092.92090265 -.00000017  00000+0 -77094-4 0  9994
2 49104  87.9093  62.9708 0001988  92.2504 267.8856 13.18687859180148
ONEWEB-0319             
1 49105U 21075AG  25093.50296770  .00000086  00000+0  18784-3 0  9993
2 49105  87.9001  93.4575 0002033 103.5849 256.5509 13.17646324176695
ONEWEB-0323             
1 49106U 21075AH  25093.22849583 -.00000136  00000+0 -41450-3 0  9993
2 49106  87.8814  78.1943 0002099 108.1134 252.0224 13.12442626177843
ONEWEB-0329             
1 49107U 21075AJ  25092.90393869 -.00000081  00000+0 -24199-3 0  9999
2 49107  87.9002  93.5818 0001845  96.0779 264.0563 13.17650053176594
ONEWEB-0330             
1 49108U 21075AK  25092.90561734 -.00000058  00000+0 -18140-3 0  9991
2 49108  87.9002  93.5837 0001687  93.0312 267.1013 13.17650540176630
ONEWEB-0292             
1 49186U 21083A   25092.78287306 -.00000657  00000+0 -18331-2 0  9998
2 49186  87.8959  47.7867 0001937  84.4086 275.7264 13.13471009173110
ONEWEB-0303             
1 49187U 21083B   25092.84187054 -.00000025  00000+0 -96763-4 0  9991
2 49187  87.9093  62.9890 0002029  89.9762 270.1602 13.18687757173221
ONEWEB-0306             
1 49188U 21083C   25093.21175982 -.00000042  00000+0 -14050-3 0  9998
2 49188  87.9094  62.9000 0001810  79.4353 280.6983 13.18682473173311
ONEWEB-0307             
1 49189U 21083D   25093.15785049  .00000189  00000+0  48313-3 0  9992
2 49189  87.8958  47.7151 0001620  73.8024 286.3283 13.13470686174458
ONEWEB-0320             
1 49190U 21083E   25093.44572032  .00000063  00000+0  12590-3 0  9991
2 49190  87.9093  62.8816 0001903  84.5434 275.5915 13.18685209173304
ONEWEB-0321             
1 49191U 21083F   25092.82670575 -.00000037  00000+0 -12318-3 0  9995
2 49191  87.9333   2.0945 0001813  66.4025 293.7299 13.20776700179983
ONEWEB-0322             
1 49192U 21083G   25092.77273651  .00000202  00000+0  51945-3 0  9995
2 49192  87.8958  47.7811 0001875  68.6961 291.4368 13.13471501173108
ONEWEB-0324             
1 49193U 21083H   25092.90035877  .00000006  00000+0 -18353-4 0  9997
2 49193  87.9093  62.9700 0001743  88.8120 271.3212 13.18684385173253
ONEWEB-0325             
1 49194U 21083J   25093.20860332  .00000051  00000+0  95732-4 0  9999
2 49194  87.9095  62.9256 0001941  80.9451 279.1900 13.18684671173306
ONEWEB-0326             
1 49195U 21083K   25093.29881158 -.00001315  00000+0 -33677-2 0  9992
2 49195  87.9093  62.8998 0002563  98.9142 261.2280 13.18690182173301
ONEWEB-0327             
1 49196U 21083L   25093.29857399  .00000026  00000+0  33391-4 0  9994
2 49196  87.9092  62.9273 0002162  90.8699 269.2681 13.18686214173327
